{
  "norad_id": 58073,
  "name": "YUNHAI-1 04",
  "history": [
    {
      "epoch": "2026-03-28T23:27:51.940800",
      "apogee_km": 784.443205545922,
      "perigee_km": 781.1656426561103,
      "latitude_deg": -32.904472061027754,
      "longitude_deg": 81.15771199995652,
      "semi_major_axis_km": 7160.941424101015,
      "eccentricity": 0.00022885,
      "inclination_deg": 98.5062,
      "raan_deg": 115.2295,
      "arg_perigee_deg": 85.7001,
      "mean_anomaly_deg": 274.4445,
      "mean_motion_rev_day": 14.32674662
    },
    {
      "epoch": "2026-03-29T04:29:34.358208",
      "apogee_km": 784.4430769802248,
      "perigee_km": 781.1647982189925,
      "latitude_deg": 48.568498192335404,
      "longitude_deg": 101.27150912000798,
      "semi_major_axis_km": 7160.940937599608,
      "eccentricity": 0.0002289,
      "inclination_deg": 98.5061,
      "raan_deg": 115.4351,
      "arg_perigee_deg": 85.4094,
      "mean_anomaly_deg": 274.7351,
      "mean_motion_rev_day": 14.32674808
    }
  ]
}